STARLINK-32196          
1 60430U 24144F   26068.72645044 -.00000433  00000+0 -24845-5 0  9991
2 60430  53.1607 217.0433 0001185  85.0601 275.0535 15.30184447 89317
YAM-7                   
1 60504U 24149AN  26068.71799904  .00009009  00000+0  30984-3 0  9997
2 60504  97.3828 149.4631 0001973 296.5121  63.5918 15.30304554 86835
